NORAD_CAT_ID,OBJECT_NAME,OBJECT_TYPE,EPOCH,MEAN_MOTION,ECCENTRICITY,INCLINATION,RA_OF_ASC_NODE,ARG_OF_PERICENTER,MEAN_ANOMALY,BSTAR,MEAN_MOTION_DOT,MEAN_MOTION_DDOT,TLE_LINE0,TLE_LINE1,TLE_LINE2,SEMIMAJOR_AXIS,PERIOD,APOGEE,PERIGEE,DECAYED
55401.0,STARLINK-5076,PAYLOAD,2023-05-04 21:33:51,15.6991909,0.0003408,69.9982,187.6141,275.178,84.9027,2.5479e-05,2.851e-05,0.0,0 STARLINK-5076,1 55401U 23014L   23124.89851334  .00002851  00000-0  25479-4 0  9995,2 55401  69.9982 187.6141 0003408 275.1780  84.9027 15.69919090 15772,6737.265,91.724,361.427,356.834,0.0
55401.0,STARLINK-5076,PAYLOAD,2023-05-05 12:51:22,15.69923484,0.0003567,69.9964,185.8226,269.4802,90.5985,1.1358e-05,1.153e-05,0.0,0 STARLINK-5076,1 55401U 23014L   23125.53567965  .00001153  00000-0  11358-4 0  9996,2 55401  69.9964 185.8226 0003567 269.4802  90.5985 15.69923484 15872,6737.253,91.724,361.521,356.715,0.0
55401.0,STARLINK-5076,PAYLOAD,2023-05-06 13:19:24,15.69932318,0.0003621,69.9963,182.9564,270.2348,89.8433,2.1489e-05,2.373e-05,0.0,0 STARLINK-5076,1 55401U 23014L   23126.55513942  .00002373  00000-0  21489-4 0  9996,2 55401  69.9963 182.9564 0003621 270.2348  89.8433 15.69932318 16034,6737.228,91.724,361.532,356.653,0.0
55401.0,STARLINK-5076,PAYLOAD,2023-05-07 03:05:10,15.69926832,0.0002864,69.9981,181.3472,271.8542,88.2326,1.57e-05,1.676e-05,0.0,0 STARLINK-5076,1 55401U 23014L   23127.12859518  .00001676  00000-0  15700-4 0  9996,2 55401  69.9981 181.3472 0002864 271.8542  88.2326 15.69926832 15189,6737.243,91.724,361.038,357.179,0.0
55401.0,STARLINK-5076,PAYLOAD,2023-05-07 12:15:41,15.69914161,0.000337,69.9975,180.27,268.8712,91.2098,-6.8635e-06,-1.038e-05,0.0,0 STARLINK-5076,1 55401U 23014L   23127.51090258 -.00001038  00000-0 -68635-5 0  9997,2 55401  69.9975 180.2700 0003370 268.8712  91.2098 15.69914161 15241,6737.28,91.725,361.415,356.874,0.0
55401.0,STARLINK-5076,PAYLOAD,2023-05-08 05:04:57,15.6993428,0.0003424,69.9982,178.2997,265.8746,94.2058,3.0764e-05,3.489e-05,0.0,0 STARLINK-5076,1 55401U 23014L   23128.21177611  .00003489  00000-0  30764-4 0  9995,2 55401  69.9982 178.2997 0003424 265.8746  94.2058 15.69934280 15353,6737.222,91.724,361.394,356.78,0.0
55401.0,STARLINK-5076,PAYLOAD,2023-05-08 20:22:28,15.69931927,0.0004142,69.9969,176.5081,272.6286,87.4436,2.7558e-05,3.103e-05,0.0,0 STARLINK-5076,1 55401U 23014L   23128.84894396  .00003103  00000-0  27558-4 0  9990,2 55401  69.9969 176.5081 0004142 272.6286  87.4436 15.69931927 15456,6737.229,91.724,361.884,356.303,0.0
55401.0,STARLINK-5076,PAYLOAD,2023-05-09 13:11:45,15.69925064,0.000292,69.9998,174.5382,264.3826,95.7037,2.5431e-05,2.846e-05,0.0,0 STARLINK-5076,1 55401U 23014L   23129.54983532  .00002846  00000-0  25431-4 0  9990,2 55401  69.9998 174.5382 0002920 264.3826  95.7037 15.69925064 15566,6737.248,91.724,361.081,357.146,0.0
55401.0,STARLINK-5076,PAYLOAD,2023-05-10 12:08:02,15.69923832,0.0003045,69.9995,171.8514,265.2622,94.8226,2.7958e-05,3.15e-05,0.0,0 STARLINK-5076,1 55401U 23014L   23130.50558557  .00003150  00000-0  27958-4 0  9998,2 55401  69.9995 171.8514 0003045 265.2622  94.8226 15.69923832 16655,6737.252,91.724,361.168,357.065,0.0
55401.0,STARLINK-5076,PAYLOAD,2023-05-10 19:46:47,15.69943264,0.0003044,69.9995,170.9554,274.5979,85.4869,-4.6378e-05,-5.789e-05,0.0,0 STARLINK-5076,1 55401U 23014L   23130.82415753 -.00005789  00000-0 -46378-4 0  9992,2 55401  69.9995 170.9554 0003044 274.5979  85.4869 15.69943264 15767,6737.196,91.723,361.112,357.011,0.0
55401.0,STARLINK-5076,PAYLOAD,2023-05-11 11:04:19,15.69918197,0.000338,69.9988,169.1644,270.3158,89.7651,-6.0451e-06,-9.39e-06,0.0,0 STARLINK-5076,1 55401U 23014L   23131.46133817 -.00000939  00000-0 -60451-5 0  9992,2 55401  69.9988 169.1644 0003380 270.3158  89.7651 15.69918197 15869,6737.268,91.725,361.41,356.856,0.0
55401.0,STARLINK-5076,PAYLOAD,2023-05-11 20:14:50,15.69925322,0.0003472,69.997,168.0898,267.6965,92.3833,1.3949e-05,1.465e-05,0.0,0 STARLINK-5076,1 55401U 23014L   23131.84363463  .00001465  00000-0  13949-4 0  9998,2 55401  69.9970 168.0898 0003472 267.6965  92.3833 15.69925322 16867,6737.248,91.724,361.452,356.773,0.0
55401.0,STARLINK-5076,PAYLOAD,2023-05-12 03:53:35,15.69926388,0.0003501,69.9968,167.1941,266.6946,93.3849,6.4932e-06,5.68e-06,0.0,0 STARLINK-5076,1 55401U 23014L   23132.16221894  .00000568  00000-0  64932-5 0  9997,2 55401  69.9968 167.1941 0003501 266.6946  93.3849 15.69926388 16911,6737.245,91.724,361.468,356.751,0.0
55401.0,STARLINK-5076,PAYLOAD,2023-05-12 19:11:06,15.69929265,0.0003734,69.9965,165.4022,261.947,98.1302,1.204e-05,1.235e-05,0.0,0 STARLINK-5076,1 55401U 23014L   23132.79938106  .00001235  00000-0  12040-4 0  9991,2 55401  69.9965 165.4022 0003734 261.9470  98.1302 15.69929265 17013,6737.236,91.724,361.617,356.586,0.0
55401.0,STARLINK-5076,PAYLOAD,2023-05-13 04:21:37,15.69922961,0.0003404,69.9972,164.3268,265.2021,94.8786,1.6116e-05,1.725e-05,0.0,0 STARLINK-5076,1 55401U 23014L   23133.18168588  .00001725  00000-0  16116-4 0  9996,2 55401  69.9972 164.3268 0003404 265.2021  94.8786 15.69922961 16131,6737.254,91.724,361.413,356.826,0.0
55401.0,STARLINK-5076,PAYLOAD,2023-05-13 12:00:24,15.69911118,0.0003321,69.9972,163.4319,266.4921,93.5895,4.1877e-06,2.91e-06,0.0,0 STARLINK-5076,1 55401U 23014L   23133.50028057  .00000291  00000-0  41877-5 0  9998,2 55401  69.9972 163.4319 0003321 266.4921  93.5895 15.69911118 16182,6737.288,91.725,361.391,356.916,0.0
55401.0,STARLINK-5076,PAYLOAD,2023-05-14 04:49:39,15.69924249,0.0003752,69.9962,161.4604,264.6157,95.4611,9.543e-06,9.35e-06,0.0,0 STARLINK-5076,1 55401U 23014L   23134.20115518  .00000935  00000-0  95430-5 0  9994,2 55401  69.9962 161.4604 0003752 264.6157  95.4611 15.69924249 16293,6737.251,91.724,361.644,356.588,0.0
55401.0,STARLINK-5076,PAYLOAD,2023-05-14 12:28:25,15.69928212,0.0003451,69.9967,160.5662,261.5032,98.5773,1.3028e-05,1.354e-05,0.0,0 STARLINK-5076,1 55401U 23014L   23134.51973498  .00001354  00000-0  13028-4 0  9995,2 55401  69.9967 160.5662 0003451 261.5032  98.5773 15.69928212 17283,6737.239,91.724,361.429,356.779,0.0
55401.0,STARLINK-5076,PAYLOAD,2023-05-15 05:17:41,15.69925146,0.0003121,69.9978,158.5934,268.4623,91.6216,9.8579e-06,9.73e-06,0.0,0 STARLINK-5076,1 55401U 23014L   23135.22062179  .00000973  00000-0  98579-5 0  9990,2 55401  69.9978 158.5934 0003121 268.4623  91.6216 15.69925146 16457,6737.248,91.724,361.216,357.01,0.0
55401.0,STARLINK-5076,PAYLOAD,2023-05-15 11:24:42,15.69932447,0.0002682,69.9965,157.8752,260.2193,99.8699,-1.8471e-05,-2.433e-05,0.0,0 STARLINK-5076,1 55401U 23014L   23135.47548834 -.00002433  00000-0 -18471-4 0  9991,2 55401  69.9965 157.8752 0002682 260.2193  99.8699 15.69932447 17432,6737.227,91.724,360.899,357.285,0.0
55401.0,STARLINK-5076,PAYLOAD,2023-05-15 19:03:28,15.69914619,0.0003321,69.9964,156.9803,263.0675,97.0143,1.4908e-05,1.579e-05,0.0,0 STARLINK-5076,1 55401U 23014L   23135.79407908  .00001579  00000-0  14908-4 0  9991,2 55401  69.9964 156.9803 0003321 263.0675  97.0143 15.69914619 16541,6737.278,91.725,361.381,356.906,0.0
55401.0,STARLINK-5076,PAYLOAD,2023-05-16 04:13:58,15.69922558,0.0003392,69.9962,155.9058,259.2774,100.804,9.411e-06,9.19e-06,0.0,0 STARLINK-5076,1 55401U 23014L   23136.17637449  .00000919  00000-0  94110-5 0  9990,2 55401  69.9962 155.9058 0003392 259.2774 100.8040 15.69922558 16602,6737.256,91.724,361.406,356.835,0.0
55401.0,STARLINK-5076,PAYLOAD,2023-05-16 10:20:59,15.69925834,0.0003126,69.997,155.1902,257.7045,102.3801,1.6114e-05,1.725e-05,0.0,0 STARLINK-5076,1 55401U 23014L   23136.43123911  .00001725  00000-0  16114-4 0  9996,2 55401  69.9970 155.1902 0003126 257.7045 102.3801 15.69925834 17580,6737.246,91.724,361.217,357.005,0.0
55401.0,STARLINK-5076,PAYLOAD,2023-05-17 10:49:01,15.69922443,0.00027,69.998,152.3248,252.9289,107.1611,1.5496e-06,-2.6e-07,0.0,0 STARLINK-5076,1 55401U 23014L   23137.45071156 -.00000026  00000-0  15496-5 0  9999,2 55401  69.9980 152.3248 0002700 252.9289 107.1611 15.69922443 16806,6737.256,91.724,360.94,357.302,0.0
55401.0,STARLINK-5076,PAYLOAD,2023-05-18 09:45:17,15.69927502,0.0003025,69.9988,149.6391,256.1204,103.9655,8.2512e-06,7.8e-06,0.0,0 STARLINK-5076,1 55401U 23014L   23138.40645781  .00000780  00000-0  82512-5 0  9995,2 55401  69.9988 149.6391 0003025 256.1204 103.9655 15.69927502 17899,6737.241,91.724,361.144,357.068,0.0
55401.0,STARLINK-5076,PAYLOAD,2023-05-19 02:34:35,15.69910981,0.0003935,69.9976,147.6652,273.8858,86.1888,-2.1943e-06,-4.77e-06,0.0,0 STARLINK-5076,1 55401U 23014L   23139.10735398 -.00000477  00000-0 -21943-5 0  9993,2 55401  69.9976 147.6652 0003935 273.8858  86.1888 15.69910981 17067,6737.289,91.725,361.805,356.503,0.0
55401.0,STARLINK-5076,PAYLOAD,2023-05-19 08:41:35,15.69923553,0.0003136,69.9982,146.9492,264.5344,95.5494,1.2339e-05,1.271e-05,0.0,0 STARLINK-5076,1 55401U 23014L   23139.36221143  .00001271  00000-0  12339-4 0  9998,2 55401  69.9982 146.9492 0003136 264.5344  95.5494 15.69923553 17109,6737.253,91.724,361.231,357.005,0.0
55401.0,STARLINK-5076,PAYLOAD,2023-05-19 10:13:20,15.69923682,0.0003298,69.9979,146.7703,263.7328,96.3492,8.681e-06,8.31e-06,0.0,0 STARLINK-5076,1 55401U 23014L   23139.42592874  .00000831  00000-0  86810-5 0  9994,2 55401  69.9979 146.7703 0003298 263.7328  96.3492 15.69923682 18055,6737.252,91.724,361.339,356.895,0.0
55401.0,STARLINK-5076,PAYLOAD,2023-05-20 09:09:36,15.69927555,0.0003582,69.9979,144.083,263.2119,96.8669,1.1424e-05,1.161e-05,0.0,0 STARLINK-5076,1 55401U 23014L   23140.38167573  .00001161  00000-0  11424-4 0  9990,2 55401  69.9979 144.0830 0003582 263.2119  96.8669 15.69927555 17262,6737.241,91.724,361.52,356.693,0.0
55401.0,STARLINK-5076,PAYLOAD,2023-05-21 09:37:38,15.69943934,0.0003593,69.9978,141.2193,263.4095,96.6691,-2.6716e-05,-3.427e-05,0.0,0 STARLINK-5076,1 55401U 23014L   23141.40113994 -.00003427  00000-0 -26716-4 0  9991,2 55401  69.9978 141.2193 0003593 263.4095  96.6691 15.69943934 17429,6737.194,91.723,361.48,356.639,0.0
